ONEWEB-0509             
1 54127U 22138Q   23255.19787895  .00000164  00000+0  37665-3 0  9996
2 54127  87.9265 145.7760 0001832  81.2311 278.9029 13.19729496 43722
ONEWEB-0510             
1 54128U 22138R   23255.58186561  .00000062  00000+0  12088-3 0  9992
2 54128  87.9238 115.1834 0002136  78.4682 281.6691 13.20770363 46149
ONEWEB-0511             
1 54129U 22138S   23255.19470726  .00000159  00000+0  36392-3 0  9990
2 54129  87.9266 145.7774 0001451  88.8236 271.3063 13.19723855 43757
ONEWEB-0512             
1 54130U 22138T   23255.26261841 -.00000735  00000+0 -18681-2 0  9998
2 54130  87.9262 145.7640 0002124  92.2076 267.9300 13.19726852 43739
ONEWEB-0513             
1 54131U 22138U   23255.23341026 -.00000008  00000+0 -52370-4 0  9998
2 54131  87.9264 145.7731 0001908 101.5504 258.5843 13.19727180 43612
ONEWEB-0514             
1 54132U 22138V   23255.20262132  .00000119  00000+0  26535-3 0  9990
2 54132  87.9268 145.7776 0001719  76.0365 284.0959 13.19728267 43740
ONEWEB-0515             
1 54133U 22138W   23255.56923902 -.00002852  00000+0 -70461-2 0  9993
2 54133  87.9180 115.2254 0002581  56.2854 303.8525 13.20785001 46167
ONEWEB-0516             
1 54134U 22138X   23255.25316171  .00000094  00000+0  20330-3 0  9999
2 54134  87.9266 145.7637 0001936  77.1295 283.0054 13.19727956 43751
